*******************************************************************************
JPL/HORIZONS                 103 Hera (A868 RA)            2020-Jun-20 08:14:05
Rec #:     103 (+COV) Soln.date: 2020-Feb-22_15:17:03   # obs: 2567 (1871-2020)
 
IAU76/J2000 helio. ecliptic osc. elements (au, days, deg., period=Julian yrs):
 
  EPOCH=  2455046.5 ! 2009-Aug-03.00 (TDB)         Residual RMS= .3457
   EC= .08027804013722764  QR= 2.484418102856084   TP= 2455386.8282933645
   OM= 136.2716245020434   W=  190.4292999756296   IN= 5.422238940810766
   A= 2.701270831052868    MA= 284.4473092016032   ADIST= 2.918123559249653
   PER= 4.43977            N= .221999435           ANGMOM= .028181335
   DAN= 2.91392            DDN= 2.48747            L= 326.6552845
   B= -.9801289            MOID= 1.47229004        TP= 2010-Jul-09.3282933645
 
Asteroid physical parameters (km, seconds, rotational period in hours):
   GM= n.a.                RAD= 41.954             ROTPER= 23.74
   H= 7.6                  G= .150                 B-V= .853
                           ALBEDO= .217            STYP= S
 
ASTEROID comments: 
1: soln ref.= JPL#112, OCC=0
2: source=ORB
*******************************************************************************
 
 
*******************************************************************************
Ephemeris / WWW_USER Sat Jun 20 08:14:05 2020 Pasadena, USA      / Horizons
*******************************************************************************
Target body name: 103 Hera (A868 RA)              {source: JPL#112}
Center body name: Solar System Barycenter (0)     {source: DE431}
Center-site name: BODY CENTER
*******************************************************************************
Start time      : A.D. 1969-Jun-28 00:00:00.0000 TDB
Stop  time      : A.D. 2071-May-04 00:00:00.0000 TDB
Step-size       : 7200 minutes
*******************************************************************************
Center geodetic : 0.00000000,0.00000000,0.0000000 {E-lon(deg),Lat(deg),Alt(km)}
Center cylindric: 0.00000000,0.00000000,0.0000000 {E-lon(deg),Dxy(km),Dz(km)}
Center radii    : (undefined)                                                  
Small perturbers: Yes                             {source: SB431-N16}
Output units    : AU-D
Output type     : GEOMETRIC cartesian states
Output format   : 2 (position and velocity)
Reference frame : Ecliptic of J2000.0
*******************************************************************************
Initial IAU76/J2000 heliocentric ecliptic osculating elements (au, days, deg.):
  EPOCH=  2455046.5 ! 2009-Aug-03.00 (TDB)         Residual RMS= .3457         
   EC= .08027804013722764  QR= 2.484418102856084   TP= 2455386.8282933645      
   OM= 136.2716245020434   W=  190.4292999756296   IN= 5.422238940810766       
  Equivalent ICRF heliocentric equatorial cartesian coordinates (au, au/d):
   X=-1.240657771326775E+00  Y=-2.247768765610454E+00  Z=-7.104977191729135E-01
  VX= 9.726887720639886E-03 VY=-3.741433012239981E-03 VZ=-2.001560022817168E-03
Asteroid physical parameters (km, seconds, rotational period in hours):        
   GM= n.a.                RAD= 41.954             ROTPER= 23.74               
   H= 7.6                  G= .150                 B-V= .853                   
                           ALBEDO= .217            STYP= S                     
*******************************************************************************
            JDTDB,            Calendar Date (TDB),        delta-T,                      X,                      Y,                      Z,                     VX,                     VY,                     VZ,
******************************************************************************************************************************************************************************************************************
$$SOE
2454400.500000000, A.D. 2007-Oct-27 00:00:00.0000,      65.182433, -1.131178166746198E+00,  2.647986390104449E+00, -1.070857207925717E-01, -9.172692925408628E-03, -3.388584291362962E-03,  8.339357058070536E-04,
2454405.500000000, A.D. 2007-Nov-01 00:00:00.0000,      65.182490, -1.176863659219852E+00,  2.630634162873838E+00, -1.028996513557305E-01, -9.101060215103606E-03, -3.552062556892177E-03,  8.404462142622807E-04,
2454410.500000000, A.D. 2007-Nov-06 00:00:00.0000,      65.182560, -1.222184355972422E+00,  2.612468233331479E+00, -9.868171746479479E-02, -9.026779752429414E-03, -3.714059563996366E-03,  8.466814352788667E-04,
2454415.500000000, A.D. 2007-Nov-11 00:00:00.0000,      65.182642, -1.267127095034837E+00,  2.593496092075800E+00, -9.443329630311097E-02, -8.949882266425296E-03, -3.874541684575082E-03,  8.526410776143547E-04,
2454420.500000000, A.D. 2007-Nov-16 00:00:00.0000,      65.182734, -1.311678868255820E+00,  2.573725396441963E+00, -9.015576640311038E-02, -8.870398553938874E-03, -4.033475849561542E-03,  8.583248926516061E-04,
2454425.500000000, A.D. 2007-Nov-21 00:00:00.0000,      65.182835, -1.355826821623522E+00,  2.553163967743309E+00, -8.585050743648578E-02, -8.788359472874112E-03, -4.190829534337632E-03,  8.637326730877878E-04,
2454430.500000000, A.D. 2007-Nov-26 00:00:00.0000,      65.182943, -1.399558255556278E+00,  2.531819788585397E+00, -8.151890001087163E-02, -8.703795936516517E-03, -4.346570744209057E-03,  8.688642516312570E-04,
2454435.500000000, A.D. 2007-Dec-01 00:00:00.0000,      65.183059, -1.442860625166773E+00,  2.509701000252554E+00, -7.716232547301101E-02, -8.616738908543546E-03, -4.500667999993131E-03,  8.737194997225187E-04,
2454440.500000000, A.D. 2007-Dec-06 00:00:00.0000,      65.183185, -1.485721540502975E+00,  2.486815900165551E+00, -7.278216571814791E-02, -8.527219398748297E-03, -4.653090323983131E-03,  8.782983263253487E-04,
2454445.500000000, A.D. 2007-Dec-11 00:00:00.0000,      65.183317, -1.528128766769864E+00,  2.463172939408721E+00, -6.837980300530691E-02, -8.435268459656363E-03, -4.803807226173663E-03,  8.826006767732687E-04,
2454450.500000000, A.D. 2007-Dec-16 00:00:00.0000,      65.183455, -1.570070224536538E+00,  2.438780720325806E+00, -6.395661977827627E-02, -8.340917184046583E-03, -4.952788690505496E-03,  8.866265316419616E-04,
2454455.500000000, A.D. 2007-Dec-21 00:00:00.0000,      65.183595, -1.611533989932918E+00,  2.413647994184861E+00, -5.951399849218143E-02, -8.244196703236598E-03, -5.100005160988947E-03,  8.903759056352972E-04,
2454460.500000000, A.D. 2007-Dec-26 00:00:00.0000,      65.183737, -1.652508294839411E+00,  2.387783658912851E+00, -5.505332144559418E-02, -8.145138185954439E-03, -5.245427527712884E-03,  8.938488464915817E-04,
2454465.500000000, A.D. 2007-Dec-31 00:00:00.0000,      65.183882, -1.692981527072072E+00,  2.361196756900298E+00, -5.057597061802350E-02, -8.043772837649003E-03, -5.389027112836450E-03,  8.970454339254927E-04,
2454470.500000000, A.D. 2008-Jan-05 00:00:00.0000,      65.184029, -1.732942230565210E+00,  2.333896472875716E+00, -4.608332751256780E-02, -7.940131900138493E-03, -5.530775656706048E-03,  8.999657786233357E-04,
2454475.500000000, A.D. 2008-Jan-10 00:00:00.0000,      65.184177, -1.772379105552971E+00,  2.305892131848902E+00, -4.157677300344045E-02, -7.834246651552620E-03, -5.670645304217976E-03,  9.026100213026797E-04,
2454480.500000000, A.D. 2008-Jan-15 00:00:00.0000,      65.184323, -1.811281008751306E+00,  2.277193197121532E+00, -3.705768718801225E-02, -7.726148406540709E-03, -5.808608591545231E-03,  9.049783318444783E-04,
2454485.500000000, A.D. 2008-Jan-20 00:00:00.0000,      65.184465, -1.849636953541659E+00,  2.247809268363034E+00, -3.252744924300940E-02, -7.615868516757380E-03, -5.944638433325746E-03,  9.070709084994472E-04,
2454490.500000000, A.D. 2008-Jan-25 00:00:00.0000,      65.184602, -1.887436110157942E+00,  2.217750079749181E+00, -2.798743728450407E-02, -7.503438371717765E-03, -6.078708110372810E-03,  9.088879771613188E-04,
2454495.500000000, A.D. 2008-Jan-30 00:00:00.0000,      65.184736, -1.924667805879119E+00,  2.187025498161038E+00, -2.343902823143053E-02, -7.388889400224333E-03, -6.210791257799345E-03,  9.104297906782008E-04,
2454500.500000000, A.D. 2008-Feb-04 00:00:00.0000,      65.184865, -1.961321525230540E+00,  2.155645521442853E+00, -1.888359767252468E-02, -7.272253072392595E-03, -6.340861853256244E-03,  9.116966281672891E-04,
2454505.500000000, A.D. 2008-Feb-09 00:00:00.0000,      65.184988, -1.997386910195829E+00,  2.123620276718460E+00, -1.432251973662241E-02, -7.153560901739893E-03, -6.468894205398263E-03,  9.126887943744671E-04,
2454510.500000000, A.D. 2008-Feb-14 00:00:00.0000,      65.185103, -2.032853760438674E+00,  2.090960018763168E+00, -9.757166965848765E-03, -7.032844447121743E-03, -6.594862943324752E-03,  9.134066191636027E-04,
2454515.500000000, A.D. 2008-Feb-19 00:00:00.0000,      65.185208, -2.067712033535563E+00,  2.057675128425677E+00, -5.188910191105353E-03, -6.910135315333291E-03, -6.718743007024639E-03,  9.138504570896843E-04,
2454520.500000000, A.D. 2008-Feb-24 00:00:00.0000,      65.185303, -2.101951845224346E+00,  2.023776111097011E+00, -6.191184097020256E-04, -6.785465164816125E-03, -6.840509638005263E-03,  9.140206869591690E-04,
2454525.500000000, A.D. 2008-Feb-29 00:00:00.0000,      65.185388, -2.135563469673292E+00,  1.989273595226636E+00,  3.950841334782373E-03, -6.658865710066826E-03, -6.960138369798053E-03,  9.139177113860966E-04,
2454530.500000000, A.D. 2008-Mar-05 00:00:00.0000,      65.185465, -2.168537339773192E+00,  1.954178330885974E+00,  8.519604070504038E-03, -6.530368726420591E-03, -7.077605018537329E-03,  9.135419563883716E-04,
2454535.500000000, A.D. 2008-Mar-10 00:00:00.0000,      65.185531, -2.200864047454147E+00,  1.918501188378449E+00,  1.308580701348919E-02, -6.400006055140695E-03, -7.192885673781117E-03,  9.128938710433064E-04,
